{
    "links": {
        "self": "http://www.neowsapp.com/rest/v1/neo/54017118?api_key=iIulBulltgU6a56xZRHN4H3l9WmuAYTsLGpBGhQ2"
    },
    "id": "54017118",
    "neo_reference_id": "54017118",
    "name": "(2020 JG3)",
    "designation": "2020 JG3",
    "nasa_jpl_url": "http://ssd.jpl.nasa.gov/sbdb.cgi?sstr=54017118",
    "absolute_magnitude_h": 26.007,
    "estimated_diameter": {
        "kilometers": {
            "estimated_diameter_min": 0.0167168704,
            "estimated_diameter_max": 0.0373800587
        },
        "meters": {
            "estimated_diameter_min": 16.716870441,
            "estimated_diameter_max": 37.3800586771
        },
        "miles": {
            "estimated_diameter_min": 0.0103873785,
            "estimated_diameter_max": 0.0232268844
        },
        "feet": {
            "estimated_diameter_min": 54.8453772177,
            "estimated_diameter_max": 122.6379917103
        }
    },
    "is_potentially_hazardous_asteroid": false,
    "close_approach_data": [
        {
            "close_approach_date": "2020-05-04",
            "close_approach_date_full": "2020-May-04 15:54",
            "epoch_date_close_approach": 1588607640000,
            "relative_velocity": {
                "kilometers_per_second": "3.2873260107",
                "kilometers_per_hour": "11834.3736384013",
                "miles_per_hour": "7353.4195532611"
            },
            "miss_distance": {
                "astronomical": "0.1004555576",
                "lunar": "39.0772119064",
                "kilometers": "15027937.446622312",
                "miles": "9337927.3238874256"
            },
            "orbiting_body": "Earth"
        }
    ],
    "orbital_data": {
        "orbit_id": "1",
        "orbit_determination_date": "2020-05-19 23:42:22",
        "first_observation_date": "2020-05-11",
        "last_observation_date": "2020-05-20",
        "data_arc_in_days": 9,
        "observations_used": 11,
        "orbit_uncertainty": "8",
        "minimum_orbit_intersection": ".0998775",
        "jupiter_tisserand_invariant": "5.183",
        "epoch_osculation": "2458982.5",
        "eccentricity": ".1018134245422351",
        "semi_major_axis": "1.232777000082167",
        "inclination": "6.346581325637572",
        "ascending_node_longitude": "220.8090118201441",
        "orbital_period": "499.9484331185166",
        "perihelion_distance": "1.107263752006898",
        "perihelion_argument": "355.9003368619991",
        "aphelion_distance": "1.358290248157435",
        "perihelion_time": "2458965.015382381248",
        "mean_anomaly": "12.59022316259279",
        "mean_motion": ".7200742639684586",
        "equinox": "J2000",
        "orbit_class": {
            "orbit_class_type": "AMO",
            "orbit_class_description": "Near-Earth asteroid orbits similar to that of 1221 Amor",
            "orbit_class_range": "1.017 AU < q (perihelion) < 1.3 AU"
        }
    },
    "is_sentry_object": false
}